IRIDIUM 144             
1 43249U 18030A   25221.57462357 -.00000042  00000+0 -21918-4 0  9997
2 43249  86.3917  60.6691 0002043  91.2463 268.8967 14.34217007385472
IRIDIUM 149             
1 43250U 18030B   25221.58096558 -.00000035  00000+0 -19387-4 0  9995
2 43250  86.3916  60.6370 0002060  91.6999 268.4433 14.34217264385495
IRIDIUM 157             
1 43251U 18030C   25221.59999396 -.00000021  00000+0 -14443-4 0  9992
2 43251  86.3917  60.6751 0002197  84.2414 275.9032 14.34217196385471
IRIDIUM 140             
1 43252U 18030D   25221.54925247  .00000007  00000+0 -46215-5 0  9998
2 43252  86.3918  60.7099 0001922  92.7517 267.3898 14.34217401385522
IRIDIUM 145             
1 43253U 18030E   25221.60633676 -.00000053  00000+0 -25982-4 0  9997
2 43253  86.3918  60.6588 0002134 100.0494 260.0943 14.34216886385468
IRIDIUM 146             
1 43254U 18030F   25221.58730876 -.00000035  00000+0 -19735-4 0  9994
2 43254  86.3916  60.6800 0002081  98.5998 261.5434 14.34217018385475
IRIDIUM 148             
1 43255U 18030G   25221.55559615 -.00000021  00000+0 -14410-4 0  9992
2 43255  86.3918  60.7317 0002234  89.3895 270.7556 14.34217136385508
IRIDIUM 142             
1 43256U 18030H   25221.59365148 -.00000022  00000+0 -14897-4 0  9993
2 43256  86.3915  60.6162 0002200 101.8608 258.2835 14.34217150385471
